[{"OBJECT_NAME":"STARLINK-6039","OBJECT_ID":"2023-058C","EPOCH":"2026-03-03T22:00:03.000096","MEAN_MOTION":15.03768416,"ECCENTRICITY":0.00025304,"INCLINATION":97.6032,"RA_OF_ASC_NODE":64.4997,"ARG_OF_PERICENTER":98.6897,"MEAN_ANOMALY":147.6234,"EPHEMERIS_TYPE":0,"CLASSIFICATION_TYPE":"U","NORAD_CAT_ID":56319,"ELEMENT_SET_NO":999,"REV_AT_EPOCH":581,"BSTAR":0.0069584097,"MEAN_MOTION_DOT":0.00096745,"MEAN_MOTION_DDOT":0},{"OBJECT_NAME":"STARLINK-5988","OBJECT_ID":"2023-058D","EPOCH":"2026-03-03T22:41:07.014912","MEAN_MOTION":15.01259176,"ECCENTRICITY":0.00027612,"INCLINATION":97.6055,"RA_OF_ASC_NODE":64.5117,"ARG_OF_PERICENTER":68.4714,"MEAN_ANOMALY":291.6805,"EPHEMERIS_TYPE":0,"CLASSIFICATION_TYPE":"U","NORAD_CAT_ID":56320,"ELEMENT_SET_NO":999,"REV_AT_EPOCH":15692,"BSTAR":3.0601667e-5,"MEAN_MOTION_DOT":3.35e-6,"MEAN_MOTION_DDOT":0},{"OBJECT_NAME":"STARLINK-5876","OBJECT_ID":"2023-058E","EPOCH":"2026-03-03T22:25:54.236064","MEAN_MOTION":15.05649649,"ECCENTRICITY":0.00021539,"INCLINATION":97.6047,"RA_OF_ASC_NODE":65.5876,"ARG_OF_PERICENTER":121.093,"MEAN_ANOMALY":239.0508,"EPHEMERIS_TYPE":0,"CLASSIFICATION_TYPE":"U","NORAD_CAT_ID":56321,"ELEMENT_SET_NO":999,"REV_AT_EPOCH":15698,"BSTAR":0.00014767269,"MEAN_MOTION_DOT":2.071e-5,"MEAN_MOTION_DDOT":0},{"OBJECT_NAME":"STARLINK-6033","OBJECT_ID":"2023-058F","EPOCH":"2026-03-03T22:38:05.777088","MEAN_MOTION":15.012609,"ECCENTRICITY":0.00028912,"INCLINATION":97.605,"RA_OF_ASC_NODE":64.5144,"ARG_OF_PERICENTER":69.6363,"MEAN_ANOMALY":290.5172,"EPHEMERIS_TYPE":0,"CLASSIFICATION_TYPE":"U","NORAD_CAT_ID":56322,"ELEMENT_SET_NO":999,"REV_AT_EPOCH":15691,"BSTAR":3.5636254e-5,"MEAN_MOTION_DOT":3.99e-6,"MEAN_MOTION_DDOT":0},{"OBJECT_NAME":"STARLINK-6035","OBJECT_ID":"2023-058G","EPOCH":"2026-03-03T22:27:25.659360","MEAN_MOTION":15.01271426,"ECCENTRICITY":0.00034382,"INCLINATION":97.6038,"RA_OF_ASC_NODE":64.5251,"ARG_OF_PERICENTER":61.6458,"MEAN_ANOMALY":298.5113,"EPHEMERIS_TYPE":0,"CLASSIFICATION_TYPE":"U","NORAD_CAT_ID":56323,"ELEMENT_SET_NO":999,"REV_AT_EPOCH":15690,"BSTAR":-1.8240061e-5,"MEAN_MOTION_DOT":-2.93e-6,"MEAN_MOTION_DDOT":0},{"OBJECT_NAME":"STARLINK-6034","OBJECT_ID":"2023-058H","EPOCH":"2026-03-03T14:07:28.220448","MEAN_MOTION":15.05647186,"ECCENTRICITY":0.0001941,"INCLINATION":97.6043,"RA_OF_ASC_NODE":65.2786,"ARG_OF_PERICENTER":89.9785,"MEAN_ANOMALY":270.1664,"EPHEMERIS_TYPE":0,"CLASSIFICATION_TYPE":"U","NORAD_CAT_ID":56324,"ELEMENT_SET_NO":999,"REV_AT_EPOCH":15693,"BSTAR":-7.4618e-6,"MEAN_MOTION_DOT":-1.68e-6,"MEAN_MOTION_DDOT":0},{"OBJECT_NAME":"STARLINK-5981","OBJECT_ID":"2023-058J","EPOCH":"2026-03-03T22:16:45.656544","MEAN_MOTION":15.01261423,"ECCENTRICITY":0.00032102,"INCLINATION":97.6036,"RA_OF_ASC_NODE":64.5334,"ARG_OF_PERICENTER":80.2378,"MEAN_ANOMALY":279.9208,"EPHEMERIS_TYPE":0,"CLASSIFICATION_TYPE":"U","NORAD_CAT_ID":56325,"ELEMENT_SET_NO":999,"REV_AT_EPOCH":15726,"BSTAR":1.6145321e-5,"MEAN_MOTION_DOT":1.49e-6,"MEAN_MOTION_DDOT":0},{"OBJECT_NAME":"STARLINK-5980","OBJECT_ID":"2023-058K","EPOCH":"2026-03-03T22:30:26.759808","MEAN_MOTION":15.01260942,"ECCENTRICITY":0.00036082,"INCLINATION":97.6041,"RA_OF_ASC_NODE":64.5221,"ARG_OF_PERICENTER":50.7295,"MEAN_ANOMALY":309.4249,"EPHEMERIS_TYPE":0,"CLASSIFICATION_TYPE":"U","NORAD_CAT_ID":56326,"ELEMENT_SET_NO":999,"REV_AT_EPOCH":15691,"BSTAR":1.6071583e-5,"MEAN_MOTION_DOT":1.48e-6,"MEAN_MOTION_DDOT":0},{"OBJECT_NAME":"STARLINK-5997","OBJECT_ID":"2023-058L","EPOCH":"2026-03-03T14:09:12.838752","MEAN_MOTION":15.01260531,"ECCENTRICITY":0.0002671,"INCLINATION":97.6037,"RA_OF_ASC_NODE":64.2136,"ARG_OF_PERICENTER":83.4227,"MEAN_ANOMALY":276.7302,"EPHEMERIS_TYPE":0,"CLASSIFICATION_TYPE":"U","NORAD_CAT_ID":56327,"ELEMENT_SET_NO":999,"REV_AT_EPOCH":15721,"BSTAR":-5.9853e-6,"MEAN_MOTION_DOT":-1.35e-6,"MEAN_MOTION_DDOT":0},{"OBJECT_NAME":"STARLINK-5992","OBJECT_ID":"2023-058M","EPOCH":"2026-03-03T13:23:35.917440","MEAN_MOTION":15.05647838,"ECCENTRICITY":0.0001742,"INCLINATION":97.6039,"RA_OF_ASC_NODE":65.1663,"ARG_OF_PERICENTER":93.5326,"MEAN_ANOMALY":266.61,"EPHEMERIS_TYPE":0,"CLASSIFICATION_TYPE":"U","NORAD_CAT_ID":56328,"ELEMENT_SET_NO":999,"REV_AT_EPOCH":15727,"BSTAR":1.2809e-5,"MEAN_MOTION_DOT":1.24e-6,"MEAN_MOTION_DDOT":0},{"OBJECT_NAME":"STARLINK-5984","OBJECT_ID":"2023-058N","EPOCH":"2026-03-03T13:03:39.799296","MEAN_MOTION":15.05664625,"ECCENTRICITY":0.0002595,"INCLINATION":97.6057,"RA_OF_ASC_NODE":65.1849,"ARG_OF_PERICENTER":73.5063,"MEAN_ANOMALY":286.6449,"EPHEMERIS_TYPE":0,"CLASSIFICATION_TYPE":"U","NORAD_CAT_ID":56329,"ELEMENT_SET_NO":999,"REV_AT_EPOCH":15727,"BSTAR":-0.00025895,"MEAN_MOTION_DOT":-3.797e-5,"MEAN_MOTION_DDOT":0},{"OBJECT_NAME":"STARLINK-5991","OBJECT_ID":"2023-058Q","EPOCH":"2026-03-03T14:06:11.694240","MEAN_MOTION":15.01256837,"ECCENTRICITY":0.0001805,"INCLINATION":97.6035,"RA_OF_ASC_NODE":64.2162,"ARG_OF_PERICENTER":86.156,"MEAN_ANOMALY":273.9871,"EPHEMERIS_TYPE":0,"CLASSIFICATION_TYPE":"U","NORAD_CAT_ID":56331,"ELEMENT_SET_NO":999,"REV_AT_EPOCH":15721,"BSTAR":2.4263e-5,"MEAN_MOTION_DOT":2.53e-6,"MEAN_MOTION_DDOT":0},{"OBJECT_NAME":"STARLINK-5093","OBJECT_ID":"2023-058R","EPOCH":"2026-03-03T14:22:11.106624","MEAN_MOTION":15.0126733,"ECCENTRICITY":0.000254,"INCLINATION":97.6028,"RA_OF_ASC_NODE":64.2024,"ARG_OF_PERICENTER":29.1268,"MEAN_ANOMALY":331.0098,"EPHEMERIS_TYPE":0,"CLASSIFICATION_TYPE":"U","NORAD_CAT_ID":56332,"ELEMENT_SET_NO":999,"REV_AT_EPOCH":15721,"BSTAR":3.6779e-5,"MEAN_MOTION_DOT":4.14e-6,"MEAN_MOTION_DDOT":0},{"OBJECT_NAME":"STARLINK-5553","OBJECT_ID":"2023-058S","EPOCH":"2026-03-03T12:07:49.937376","MEAN_MOTION":15.05647369,"ECCENTRICITY":0.00018477,"INCLINATION":97.6034,"RA_OF_ASC_NODE":65.0841,"ARG_OF_PERICENTER":84.6671,"MEAN_ANOMALY":275.4767,"EPHEMERIS_TYPE":0,"CLASSIFICATION_TYPE":"U","NORAD_CAT_ID":56333,"ELEMENT_SET_NO":999,"REV_AT_EPOCH":15726,"BSTAR":9.639767e-6,"MEAN_MOTION_DOT":7.8e-7,"MEAN_MOTION_DDOT":0},{"OBJECT_NAME":"STARLINK-5548","OBJECT_ID":"2023-058T","EPOCH":"2026-03-03T12:27:46.907424","MEAN_MOTION":15.05658211,"ECCENTRICITY":0.000221,"INCLINATION":97.6037,"RA_OF_ASC_NODE":65.2164,"ARG_OF_PERICENTER":99.8797,"MEAN_ANOMALY":260.2679,"EPHEMERIS_TYPE":0,"CLASSIFICATION_TYPE":"U","NORAD_CAT_ID":56334,"ELEMENT_SET_NO":999,"REV_AT_EPOCH":15727,"BSTAR":0.00048589,"MEAN_MOTION_DOT":6.959e-5,"MEAN_MOTION_DDOT":0},{"OBJECT_NAME":"STARLINK-5559","OBJECT_ID":"2023-058U","EPOCH":"2026-03-03T14:23:25.629216","MEAN_MOTION":15.05645777,"ECCENTRICITY":0.0002224,"INCLINATION":97.6052,"RA_OF_ASC_NODE":65.2659,"ARG_OF_PERICENTER":87.1274,"MEAN_ANOMALY":273.0207,"EPHEMERIS_TYPE":0,"CLASSIFICATION_TYPE":"U","NORAD_CAT_ID":56335,"ELEMENT_SET_NO":999,"REV_AT_EPOCH":15728,"BSTAR":0.00011038,"MEAN_MOTION_DOT":1.532e-5,"MEAN_MOTION_DDOT":0},{"OBJECT_NAME":"STARLINK-5562","OBJECT_ID":"2023-058V","EPOCH":"2026-03-03T14:11:31.432992","MEAN_MOTION":15.01261429,"ECCENTRICITY":0.0002152,"INCLINATION":97.6038,"RA_OF_ASC_NODE":64.2117,"ARG_OF_PERICENTER":47.1959,"MEAN_ANOMALY":312.9446,"EPHEMERIS_TYPE":0,"CLASSIFICATION_TYPE":"U","NORAD_CAT_ID":56336,"ELEMENT_SET_NO":999,"REV_AT_EPOCH":15721,"BSTAR":9.8032e-6,"MEAN_MOTION_DOT":6.8e-7,"MEAN_MOTION_DDOT":0},{"OBJECT_NAME":"STARLINK-5561","OBJECT_ID":"2023-058W","EPOCH":"2026-03-03T12:22:33.882816","MEAN_MOTION":15.01262808,"ECCENTRICITY":0.0001185,"INCLINATION":97.6036,"RA_OF_ASC_NODE":64.1488,"ARG_OF_PERICENTER":88.1526,"MEAN_ANOMALY":271.9834,"EPHEMERIS_TYPE":0,"CLASSIFICATION_TYPE":"U","NORAD_CAT_ID":56337,"ELEMENT_SET_NO":999,"REV_AT_EPOCH":15720,"BSTAR":-4.7049e-5,"MEAN_MOTION_DOT":-6.63e-6,"MEAN_MOTION_DDOT":0},{"OBJECT_NAME":"STARLINK-5554","OBJECT_ID":"2023-058X","EPOCH":"2026-03-03T12:24:52.710336","MEAN_MOTION":15.01263164,"ECCENTRICITY":0.0001458,"INCLINATION":97.6039,"RA_OF_ASC_NODE":64.1475,"ARG_OF_PERICENTER":94.8383,"MEAN_ANOMALY":265.3007,"EPHEMERIS_TYPE":0,"CLASSIFICATION_TYPE":"U","NORAD_CAT_ID":56338,"ELEMENT_SET_NO":999,"REV_AT_EPOCH":15720,"BSTAR":-1.8736e-5,"MEAN_MOTION_DOT":-2.99e-6,"MEAN_MOTION_DDOT":0},{"OBJECT_NAME":"STARLINK-5552","OBJECT_ID":"2023-058Y","EPOCH":"2026-03-03T12:14:12.416352","MEAN_MOTION":15.01262389,"ECCENTRICITY":0.00013329,"INCLINATION":97.6044,"RA_OF_ASC_NODE":64.1546,"ARG_OF_PERICENTER":176.3496,"MEAN_ANOMALY":183.7738,"EPHEMERIS_TYPE":0,"CLASSIFICATION_TYPE":"U","NORAD_CAT_ID":56339,"ELEMENT_SET_NO":999,"REV_AT_EPOCH":15720,"BSTAR":2.8542347e-5,"MEAN_MOTION_DOT":3.08e-6,"MEAN_MOTION_DDOT":0},{"OBJECT_NAME":"STARLINK-5540","OBJECT_ID":"2023-058Z","EPOCH":"2026-03-03T11:59:51.684864","MEAN_MOTION":15.05649973,"ECCENTRICITY":0.00017487,"INCLINATION":97.604,"RA_OF_ASC_NODE":65.0907,"ARG_OF_PERICENTER":86.3739,"MEAN_ANOMALY":273.7688,"EPHEMERIS_TYPE":0,"CLASSIFICATION_TYPE":"U","NORAD_CAT_ID":56340,"ELEMENT_SET_NO":999,"REV_AT_EPOCH":15726,"BSTAR":6.681799e-6,"MEAN_MOTION_DOT":3.6e-7,"MEAN_MOTION_DDOT":0},{"OBJECT_NAME":"STARLINK-5543","OBJECT_ID":"2023-058AA","EPOCH":"2026-03-03T12:19:33.050208","MEAN_MOTION":15.01257352,"ECCENTRICITY":7.56e-5,"INCLINATION":97.6039,"RA_OF_ASC_NODE":64.1514,"ARG_OF_PERICENTER":116.7773,"MEAN_ANOMALY":243.3529,"EPHEMERIS_TYPE":0,"CLASSIFICATION_TYPE":"U","NORAD_CAT_ID":56341,"ELEMENT_SET_NO":999,"REV_AT_EPOCH":15719,"BSTAR":-6.1176e-5,"MEAN_MOTION_DOT":-8.44e-6,"MEAN_MOTION_DDOT":0},{"OBJECT_NAME":"STARLINK-5955","OBJECT_ID":"2023-058AB","EPOCH":"2026-03-03T22:33:52.707168","MEAN_MOTION":15.05648155,"ECCENTRICITY":0.00021178,"INCLINATION":97.6051,"RA_OF_ASC_NODE":65.5827,"ARG_OF_PERICENTER":90.9659,"MEAN_ANOMALY":269.181,"EPHEMERIS_TYPE":0,"CLASSIFICATION_TYPE":"U","NORAD_CAT_ID":56342,"ELEMENT_SET_NO":999,"REV_AT_EPOCH":15733,"BSTAR":2.5899158e-5,"MEAN_MOTION_DOT":3.13e-6,"MEAN_MOTION_DDOT":0}]
